{
  "type": "FeatureCollection",
  "name": "Lucknow Nagar Nigam Wards",
  "crs": { "type": "name", "properties": { "name": "urn:ogc:def:crs:OGC:1.3:CRS84" } },
  "features": [
    {
      "type": "Feature",
      "properties": {
        "ward": "Ward 1",
        "ward_number": 1,
        "ward_name": "Hazratganj",
        "population": 68400,
        "area_sq_km": 3.8,
        "description": "Central business district, Vidhan Sabha secretariat, historic Hazratganj promenade, and Raj Bhavan perimeter."
      },
      "geometry": {
        "type": "Polygon",
        "coordinates": [[
          [80.9290, 26.8390],
          [80.9440, 26.8405],
          [80.9560, 26.8440],
          [80.9575, 26.8565],
          [80.9490, 26.8615],
          [80.9350, 26.8595],
          [80.9275, 26.8510],
          [80.9290, 26.8390]
        ]]
      }
    },
    {
      "type": "Feature",
      "properties": {
        "ward": "Ward 2",
        "ward_number": 2,
        "ward_name": "Alambagh",
        "population": 82100,
        "area_sq_km": 4.5,
        "description": "Major southwestern commercial and transport node containing Alambagh ISBT metro corridor and RDSO."
      },
      "geometry": {
        "type": "Polygon",
        "coordinates": [[
          [80.8880, 26.8010],
          [80.9035, 26.8035],
          [80.9165, 26.8080],
          [80.9180, 26.8220],
          [80.9100, 26.8280],
          [80.8950, 26.8260],
          [80.8860, 26.8160],
          [80.8880, 26.8010]
        ]]
      }
    },
    {
      "type": "Feature",
      "properties": {
        "ward": "Ward 3",
        "ward_number": 3,
        "ward_name": "Gomti Nagar",
        "population": 94500,
        "area_sq_km": 6.2,
        "description": "Planned trans-Gomti sector, Vibhuti Khand commercial hub, High Court Lucknow bench, and Janeshwar Mishra Park."
      },
      "geometry": {
        "type": "Polygon",
        "coordinates": [[
          [80.9780, 26.8460],
          [80.9960, 26.8480],
          [81.0185, 26.8530],
          [81.0210, 26.8720],
          [81.0125, 26.8830],
          [80.9920, 26.8810],
          [80.9760, 26.8690],
          [80.9780, 26.8460]
        ]]
      }
    },
    {
      "type": "Feature",
      "properties": {
        "ward": "Ward 4",
        "ward_number": 4,
        "ward_name": "Chowk Lucknow",
        "population": 73200,
        "area_sq_km": 3.2,
        "description": "Old Lucknow cultural epicentre: Rumi Darwaza, Bara Imambara, Victoria Street, and traditional chikan bazaars."
      },
      "geometry": {
        "type": "Polygon",
        "coordinates": [[
          [80.8940, 26.8590],
          [80.9085, 26.8610],
          [80.9220, 26.8655],
          [80.9235, 26.8795],
          [80.9150, 26.8860],
          [80.9010, 26.8835],
          [80.8925, 26.8730],
          [80.8940, 26.8590]
        ]]
      }
    },
    {
      "type": "Feature",
      "properties": {
        "ward": "Ward 5",
        "ward_number": 5,
        "ward_name": "Indira Nagar",
        "population": 88700,
        "area_sq_km": 5.4,
        "description": "Largest planned residential colony in Asia, Munshipulia junction, Ring Road, and polytechnic corridor."
      },
      "geometry": {
        "type": "Polygon",
        "coordinates": [[
          [80.9670, 26.8700],
          [80.9840, 26.8725],
          [81.0020, 26.8770],
          [81.0040, 26.8935],
          [80.9940, 26.9010],
          [80.9770, 26.8985],
          [80.9650, 26.8875],
          [80.9670, 26.8700]
        ]]
      }
    },
    {
      "type": "Feature",
      "properties": {
        "ward": "Ward 6",
        "ward_number": 6,
        "ward_name": "Charbagh",
        "population": 65100,
        "area_sq_km": 3.6,
        "description": "Primary railway junction and heritage station terminal, connecting south-central transit corridors to Aminabad."
      },
      "geometry": {
        "type": "Polygon",
        "coordinates": [[
          [80.9090, 26.8190],
          [80.9230, 26.8210],
          [80.9360, 26.8255],
          [80.9375, 26.8390],
          [80.9290, 26.8450],
          [80.9160, 26.8430],
          [80.9070, 26.8325],
          [80.9090, 26.8190]
        ]]
      }
    }
  ]
}
