{
  "type": "FeatureCollection",
  "name": "Varanasi Nagar Nigam Wards",
  "crs": { "type": "name", "properties": { "name": "urn:ogc:def:crs:OGC:1.3:CRS84" } },
  "features": [
    {
      "type": "Feature",
      "properties": { "ward": "Ward 1", "ward_number": 1, "ward_name": "Assi / Nagwa", "zone": "Dashashwamedh Zone", "population": 42500, "area_sq_km": 2.4 },
      "geometry": {
        "type": "Polygon",
        "coordinates": [[
          [82.9960, 25.2810],
          [83.0080, 25.2830],
          [83.0090, 25.2940],
          [82.9980, 25.2930],
          [82.9960, 25.2810]
        ]]
      }
    },
    {
      "type": "Feature",
      "properties": { "ward": "Ward 2", "ward_number": 2, "ward_name": "Lanka / BHU", "zone": "Bhelupur Zone", "population": 58200, "area_sq_km": 4.1 },
      "geometry": {
        "type": "Polygon",
        "coordinates": [[
          [82.9860, 25.2720],
          [82.9990, 25.2740],
          [82.9980, 25.2860],
          [82.9850, 25.2840],
          [82.9860, 25.2720]
        ]]
      }
    },
    {
      "type": "Feature",
      "properties": { "ward": "Ward 3", "ward_number": 3, "ward_name": "Bhelupur", "zone": "Bhelupur Zone", "population": 46800, "area_sq_km": 2.8 },
      "geometry": {
        "type": "Polygon",
        "coordinates": [[
          [82.9870, 25.2950],
          [83.0010, 25.2950],
          [83.0020, 25.3080],
          [82.9880, 25.3070],
          [82.9870, 25.2950]
        ]]
      }
    },
    {
      "type": "Feature",
      "properties": { "ward": "Ward 4", "ward_number": 4, "ward_name": "Sigra", "zone": "Chetganj Zone", "population": 51400, "area_sq_km": 3.2 },
      "geometry": {
        "type": "Polygon",
        "coordinates": [[
          [82.9750, 25.3080],
          [82.9920, 25.3080],
          [82.9910, 25.3210],
          [82.9740, 25.3200],
          [82.9750, 25.3080]
        ]]
      }
    },
    {
      "type": "Feature",
      "properties": { "ward": "Ward 5", "ward_number": 5, "ward_name": "Dashashwamedh", "zone": "Dashashwamedh Zone", "population": 39600, "area_sq_km": 1.9 },
      "geometry": {
        "type": "Polygon",
        "coordinates": [[
          [83.0020, 25.3030],
          [83.0160, 25.3040],
          [83.0150, 25.3140],
          [83.0010, 25.3130],
          [83.0020, 25.3030]
        ]]
      }
    },
    {
      "type": "Feature",
      "properties": { "ward": "Ward 6", "ward_number": 6, "ward_name": "Chowk", "zone": "Kotwali Zone", "population": 44100, "area_sq_km": 1.7 },
      "geometry": {
        "type": "Polygon",
        "coordinates": [[
          [83.0050, 25.3100],
          [83.0180, 25.3110],
          [83.0170, 25.3210],
          [83.0040, 25.3200],
          [83.0050, 25.3100]
        ]]
      }
    },
    {
      "type": "Feature",
      "properties": { "ward": "Ward 7", "ward_number": 7, "ward_name": "Chetganj", "zone": "Chetganj Zone", "population": 38900, "area_sq_km": 2.2 },
      "geometry": {
        "type": "Polygon",
        "coordinates": [[
          [82.9860, 25.3120],
          [83.0010, 25.3130],
          [83.0000, 25.3250],
          [82.9850, 25.3240],
          [82.9860, 25.3120]
        ]]
      }
    },
    {
      "type": "Feature",
      "properties": { "ward": "Ward 8", "ward_number": 8, "ward_name": "Kotwali", "zone": "Kotwali Zone", "population": 35200, "area_sq_km": 1.8 },
      "geometry": {
        "type": "Polygon",
        "coordinates": [[
          [83.0040, 25.3170],
          [83.0190, 25.3180],
          [83.0180, 25.3290],
          [83.0030, 25.3280],
          [83.0040, 25.3170]
        ]]
      }
    },
    {
      "type": "Feature",
      "properties": { "ward": "Ward 9", "ward_number": 9, "ward_name": "Pandeypur", "zone": "Varunapar Zone", "population": 55800, "area_sq_km": 3.6 },
      "geometry": {
        "type": "Polygon",
        "coordinates": [[
          [82.9890, 25.3340],
          [83.0070, 25.3350],
          [83.0060, 25.3490],
          [82.9880, 25.3480],
          [82.9890, 25.3340]
        ]]
      }
    },
    {
      "type": "Feature",
      "properties": { "ward": "Ward 10", "ward_number": 10, "ward_name": "Sarnath", "zone": "Varunapar Zone", "population": 48300, "area_sq_km": 4.5 },
      "geometry": {
        "type": "Polygon",
        "coordinates": [[
          [83.0110, 25.3620],
          [83.0330, 25.3630],
          [83.0320, 25.3810],
          [83.0100, 25.3800],
          [83.0110, 25.3620]
        ]]
      }
    },
    {
      "type": "Feature",
      "properties": { "ward": "Ward 11", "ward_number": 11, "ward_name": "Shivpur", "zone": "Varunapar Zone", "population": 62400, "area_sq_km": 4.8 },
      "geometry": {
        "type": "Polygon",
        "coordinates": [[
          [82.9520, 25.3480],
          [82.9760, 25.3490],
          [82.9750, 25.3680],
          [82.9510, 25.3670],
          [82.9520, 25.3480]
        ]]
      }
    },
    {
      "type": "Feature",
      "properties": { "ward": "Ward 12", "ward_number": 12, "ward_name": "Cantonment", "zone": "Chetganj Zone", "population": 45100, "area_sq_km": 3.9 },
      "geometry": {
        "type": "Polygon",
        "coordinates": [[
          [82.9680, 25.3240],
          [82.9870, 25.3250],
          [82.9860, 25.3410],
          [82.9670, 25.3400],
          [82.9680, 25.3240]
        ]]
      }
    }
  ]
}
